HULIANWANG DIGUI-49     
1 65106U 25168A   26063.13546404 -.00000052  00000+0  15499-3 0  9992
2 65106  50.0049 342.7454 0007405 149.3756 210.7549 13.29338471 28715
HULIANWANG DIGUI-50     
1 65107U 25168B   26063.12706255 -.00000048  00000+0  16288-3 0  9996
2 65107  50.0020 342.6450 0008360 135.3669 224.7877 13.29339129 28719
HULIANWANG DIGUI-51     
1 65108U 25168C   26063.11869745 -.00000041  00000+0  17921-3 0  9998
2 65108  50.0057 342.6708 0009710 135.2757 224.8900 13.29339465 28714
HULIANWANG DIGUI-52     
1 65109U 25168D   26063.11045697 -.00000053  00000+0  15246-3 0  9992
2 65109  50.0051 342.6103 0009605 148.1510 211.9944 13.29338074 28711
HULIANWANG DIGUI-53     
1 65110U 25168E   26063.17727993 -.00000046  00000+0  16783-3 0  9995
2 65110  50.0058 342.3191 0008395 138.0745 222.0771 13.29338037 28728
HULIANWANG DIGUI-54     
1 65111U 25168F   26063.15240072 -.00000043  00000+0  17447-3 0  9997
2 65111  50.0008 342.0993 0009996 143.3100 216.8458 13.29335199 28722
HULIANWANG DIGUI-55     
1 65112U 25168G   26063.16885343 -.00000047  00000+0  16603-3 0  9992
2 65112  50.0014 342.1930 0011269 139.1617 221.0101 13.29338769 28723
HULIANWANG DIGUI-56     
1 65113U 25168H   26063.16051900 -.00000040  00000+0  18120-3 0  9996
2 65113  50.0006 342.1342 0010985 161.1448 198.9833 13.29338148 28728
HULIANWANG DIGUI-57     
1 65114U 25168J   26063.14407130 -.00000035  00000+0  19122-3 0  9992
2 65114  50.0034 342.1033 0008744 151.5884 208.5467 13.29335011 28732
HULIANWANG DIGUI-58     
1 65164U 25174A   26063.10337095  .00000092  00000+0  18023-3 0  9993
2 65164  86.4929 287.5199 0001248  86.3649 273.7627 13.24420968 26881
HULIANWANG DIGUI-59     
1 65165U 25174B   26063.11092199  .00000084  00000+0  16244-3 0  9992
2 65165  86.4890 287.4473 0001236  85.6348 274.4927 13.24421114 26883
HULIANWANG DIGUI-60     
1 65166U 25174C   26063.11844987  .00000073  00000+0  13588-3 0  9999
2 65166  86.4922 287.5138 0001207  87.6524 272.4748 13.24421337 26881
HULIANWANG DIGUI-61     
1 65167U 25174D   26063.12606027  .00000056  00000+0  95195-4 0  9998
2 65167  86.4930 287.5338 0001163  86.5400 273.5867 13.24419860 26887
HULIANWANG DIGUI-62     
1 65168U 25174E   26063.13356976  .00000055  00000+0  93987-4 0  9991
2 65168  86.4872 287.4213 0001162  88.8471 271.2797 13.24421226 26882
HULIANWANG DIGUI-63     
1 65169U 25174F   26063.14110992  .00000058  00000+0  10039-3 0  9998
2 65169  86.4925 287.5276 0001185  86.3466 273.7803 13.24421639 26887
HULIANWANG DIGUI-64     
1 65170U 25174G   26063.14866676  .00000050  00000+0  82066-4 0  9999
2 65170  86.4883 287.4508 0001171  89.0496 271.0772 13.24421619 26881
