[{"OBJECT_NAME":"HULIANWANG DIGUI-49","OBJECT_ID":"2025-168A","EPOCH":"2026-03-04T03:15:04.093056","MEAN_MOTION":13.29338471,"ECCENTRICITY":0.0007405,"INCLINATION":50.0049,"RA_OF_ASC_NODE":342.7454,"ARG_OF_PERICENTER":149.3756,"MEAN_ANOMALY":210.7549,"EPHEMERIS_TYPE":0,"CLASSIFICATION_TYPE":"U","NORAD_CAT_ID":65106,"ELEMENT_SET_NO":999,"REV_AT_EPOCH":2871,"BSTAR":0.00015499,"MEAN_MOTION_DOT":-5.2e-7,"MEAN_MOTION_DDOT":0},{"OBJECT_NAME":"HULIANWANG DIGUI-50","OBJECT_ID":"2025-168B","EPOCH":"2026-03-04T03:02:58.204320","MEAN_MOTION":13.29339129,"ECCENTRICITY":0.000836,"INCLINATION":50.002,"RA_OF_ASC_NODE":342.645,"ARG_OF_PERICENTER":135.3669,"MEAN_ANOMALY":224.7877,"EPHEMERIS_TYPE":0,"CLASSIFICATION_TYPE":"U","NORAD_CAT_ID":65107,"ELEMENT_SET_NO":999,"REV_AT_EPOCH":2871,"BSTAR":0.00016288,"MEAN_MOTION_DOT":-4.8e-7,"MEAN_MOTION_DDOT":0},{"OBJECT_NAME":"HULIANWANG DIGUI-51","OBJECT_ID":"2025-168C","EPOCH":"2026-03-04T02:50:55.459680","MEAN_MOTION":13.29339465,"ECCENTRICITY":0.000971,"INCLINATION":50.0057,"RA_OF_ASC_NODE":342.6708,"ARG_OF_PERICENTER":135.2757,"MEAN_ANOMALY":224.89,"EPHEMERIS_TYPE":0,"CLASSIFICATION_TYPE":"U","NORAD_CAT_ID":65108,"ELEMENT_SET_NO":999,"REV_AT_EPOCH":2871,"BSTAR":0.00017921,"MEAN_MOTION_DOT":-4.1e-7,"MEAN_MOTION_DDOT":0},{"OBJECT_NAME":"HULIANWANG DIGUI-52","OBJECT_ID":"2025-168D","EPOCH":"2026-03-04T02:39:03.482208","MEAN_MOTION":13.29338074,"ECCENTRICITY":0.0009605,"INCLINATION":50.0051,"RA_OF_ASC_NODE":342.6103,"ARG_OF_PERICENTER":148.151,"MEAN_ANOMALY":211.9944,"EPHEMERIS_TYPE":0,"CLASSIFICATION_TYPE":"U","NORAD_CAT_ID":65109,"ELEMENT_SET_NO":999,"REV_AT_EPOCH":2871,"BSTAR":0.00015246,"MEAN_MOTION_DOT":-5.3e-7,"MEAN_MOTION_DDOT":0},{"OBJECT_NAME":"HULIANWANG DIGUI-53","OBJECT_ID":"2025-168E","EPOCH":"2026-03-04T04:15:16.985952","MEAN_MOTION":13.29338037,"ECCENTRICITY":0.0008395,"INCLINATION":50.0058,"RA_OF_ASC_NODE":342.3191,"ARG_OF_PERICENTER":138.0745,"MEAN_ANOMALY":222.0771,"EPHEMERIS_TYPE":0,"CLASSIFICATION_TYPE":"U","NORAD_CAT_ID":65110,"ELEMENT_SET_NO":999,"REV_AT_EPOCH":2872,"BSTAR":0.00016783,"MEAN_MOTION_DOT":-4.6e-7,"MEAN_MOTION_DDOT":0},{"OBJECT_NAME":"HULIANWANG DIGUI-54","OBJECT_ID":"2025-168F","EPOCH":"2026-03-04T03:39:27.422208","MEAN_MOTION":13.29335199,"ECCENTRICITY":0.0009996,"INCLINATION":50.0008,"RA_OF_ASC_NODE":342.0993,"ARG_OF_PERICENTER":143.31,"MEAN_ANOMALY":216.8458,"EPHEMERIS_TYPE":0,"CLASSIFICATION_TYPE":"U","NORAD_CAT_ID":65111,"ELEMENT_SET_NO":999,"REV_AT_EPOCH":2872,"BSTAR":0.00017447,"MEAN_MOTION_DOT":-4.3e-7,"MEAN_MOTION_DDOT":0},{"OBJECT_NAME":"HULIANWANG DIGUI-55","OBJECT_ID":"2025-168G","EPOCH":"2026-03-04T04:03:08.936352","MEAN_MOTION":13.29338769,"ECCENTRICITY":0.0011269,"INCLINATION":50.0014,"RA_OF_ASC_NODE":342.193,"ARG_OF_PERICENTER":139.1617,"MEAN_ANOMALY":221.0101,"EPHEMERIS_TYPE":0,"CLASSIFICATION_TYPE":"U","NORAD_CAT_ID":65112,"ELEMENT_SET_NO":999,"REV_AT_EPOCH":2872,"BSTAR":0.00016603,"MEAN_MOTION_DOT":-4.7e-7,"MEAN_MOTION_DDOT":0},{"OBJECT_NAME":"HULIANWANG DIGUI-56","OBJECT_ID":"2025-168H","EPOCH":"2026-03-04T03:51:08.841600","MEAN_MOTION":13.29338148,"ECCENTRICITY":0.0010985,"INCLINATION":50.0006,"RA_OF_ASC_NODE":342.1342,"ARG_OF_PERICENTER":161.1448,"MEAN_ANOMALY":198.9833,"EPHEMERIS_TYPE":0,"CLASSIFICATION_TYPE":"U","NORAD_CAT_ID":65113,"ELEMENT_SET_NO":999,"REV_AT_EPOCH":2872,"BSTAR":0.0001812,"MEAN_MOTION_DOT":-4.0e-7,"MEAN_MOTION_DDOT":0},{"OBJECT_NAME":"HULIANWANG DIGUI-57","OBJECT_ID":"2025-168J","EPOCH":"2026-03-04T03:27:27.760320","MEAN_MOTION":13.29335011,"ECCENTRICITY":0.0008744,"INCLINATION":50.0034,"RA_OF_ASC_NODE":342.1033,"ARG_OF_PERICENTER":151.5884,"MEAN_ANOMALY":208.5467,"EPHEMERIS_TYPE":0,"CLASSIFICATION_TYPE":"U","NORAD_CAT_ID":65114,"ELEMENT_SET_NO":999,"REV_AT_EPOCH":2873,"BSTAR":0.00019122,"MEAN_MOTION_DOT":-3.5e-7,"MEAN_MOTION_DDOT":0},{"OBJECT_NAME":"HULIANWANG DIGUI-58","OBJECT_ID":"2025-174A","EPOCH":"2026-03-04T02:28:51.250080","MEAN_MOTION":13.24420968,"ECCENTRICITY":0.0001248,"INCLINATION":86.4929,"RA_OF_ASC_NODE":287.5199,"ARG_OF_PERICENTER":86.3649,"MEAN_ANOMALY":273.7627,"EPHEMERIS_TYPE":0,"CLASSIFICATION_TYPE":"U","NORAD_CAT_ID":65164,"ELEMENT_SET_NO":999,"REV_AT_EPOCH":2688,"BSTAR":0.00018023,"MEAN_MOTION_DOT":9.2e-7,"MEAN_MOTION_DDOT":0},{"OBJECT_NAME":"HULIANWANG DIGUI-59","OBJECT_ID":"2025-174B","EPOCH":"2026-03-04T02:39:43.659936","MEAN_MOTION":13.24421114,"ECCENTRICITY":0.0001236,"INCLINATION":86.489,"RA_OF_ASC_NODE":287.4473,"ARG_OF_PERICENTER":85.6348,"MEAN_ANOMALY":274.4927,"EPHEMERIS_TYPE":0,"CLASSIFICATION_TYPE":"U","NORAD_CAT_ID":65165,"ELEMENT_SET_NO":999,"REV_AT_EPOCH":2688,"BSTAR":0.00016244,"MEAN_MOTION_DOT":8.4e-7,"MEAN_MOTION_DDOT":0},{"OBJECT_NAME":"HULIANWANG DIGUI-60","OBJECT_ID":"2025-174C","EPOCH":"2026-03-04T02:50:34.068768","MEAN_MOTION":13.24421337,"ECCENTRICITY":0.0001207,"INCLINATION":86.4922,"RA_OF_ASC_NODE":287.5138,"ARG_OF_PERICENTER":87.6524,"MEAN_ANOMALY":272.4748,"EPHEMERIS_TYPE":0,"CLASSIFICATION_TYPE":"U","NORAD_CAT_ID":65166,"ELEMENT_SET_NO":999,"REV_AT_EPOCH":2688,"BSTAR":0.00013588,"MEAN_MOTION_DOT":7.3e-7,"MEAN_MOTION_DDOT":0},{"OBJECT_NAME":"HULIANWANG DIGUI-61","OBJECT_ID":"2025-174D","EPOCH":"2026-03-04T03:01:31.607328","MEAN_MOTION":13.2441986,"ECCENTRICITY":0.0001163,"INCLINATION":86.493,"RA_OF_ASC_NODE":287.5338,"ARG_OF_PERICENTER":86.54,"MEAN_ANOMALY":273.5867,"EPHEMERIS_TYPE":0,"CLASSIFICATION_TYPE":"U","NORAD_CAT_ID":65167,"ELEMENT_SET_NO":999,"REV_AT_EPOCH":2688,"BSTAR":9.5195e-5,"MEAN_MOTION_DOT":5.6e-7,"MEAN_MOTION_DDOT":0},{"OBJECT_NAME":"HULIANWANG DIGUI-62","OBJECT_ID":"2025-174E","EPOCH":"2026-03-04T03:12:20.427264","MEAN_MOTION":13.24421226,"ECCENTRICITY":0.0001162,"INCLINATION":86.4872,"RA_OF_ASC_NODE":287.4213,"ARG_OF_PERICENTER":88.8471,"MEAN_ANOMALY":271.2797,"EPHEMERIS_TYPE":0,"CLASSIFICATION_TYPE":"U","NORAD_CAT_ID":65168,"ELEMENT_SET_NO":999,"REV_AT_EPOCH":2688,"BSTAR":9.3987e-5,"MEAN_MOTION_DOT":5.5e-7,"MEAN_MOTION_DDOT":0},{"OBJECT_NAME":"HULIANWANG DIGUI-63","OBJECT_ID":"2025-174F","EPOCH":"2026-03-04T03:23:11.897088","MEAN_MOTION":13.24421639,"ECCENTRICITY":0.0001185,"INCLINATION":86.4925,"RA_OF_ASC_NODE":287.5276,"ARG_OF_PERICENTER":86.3466,"MEAN_ANOMALY":273.7803,"EPHEMERIS_TYPE":0,"CLASSIFICATION_TYPE":"U","NORAD_CAT_ID":65169,"ELEMENT_SET_NO":999,"REV_AT_EPOCH":2688,"BSTAR":0.00010039,"MEAN_MOTION_DOT":5.8e-7,"MEAN_MOTION_DDOT":0},{"OBJECT_NAME":"HULIANWANG DIGUI-64","OBJECT_ID":"2025-174G","EPOCH":"2026-03-04T03:34:04.808064","MEAN_MOTION":13.24421619,"ECCENTRICITY":0.0001171,"INCLINATION":86.4883,"RA_OF_ASC_NODE":287.4508,"ARG_OF_PERICENTER":89.0496,"MEAN_ANOMALY":271.0772,"EPHEMERIS_TYPE":0,"CLASSIFICATION_TYPE":"U","NORAD_CAT_ID":65170,"ELEMENT_SET_NO":999,"REV_AT_EPOCH":2688,"BSTAR":8.2066e-5,"MEAN_MOTION_DOT":5.0e-7,"MEAN_MOTION_DDOT":0}]
